{
    "links": {
        "self": "http://www.neowsapp.com/rest/v1/neo/3780741?api_key=iIulBulltgU6a56xZRHN4H3l9WmuAYTsLGpBGhQ2"
    },
    "id": "3780741",
    "neo_reference_id": "3780741",
    "name": "(2017 QU1)",
    "designation": "2017 QU1",
    "nasa_jpl_url": "http://ssd.jpl.nasa.gov/sbdb.cgi?sstr=3780741",
    "absolute_magnitude_h": 25.0,
    "estimated_diameter": {
        "kilometers": {
            "estimated_diameter_min": 0.02658,
            "estimated_diameter_max": 0.0594346868
        },
        "meters": {
            "estimated_diameter_min": 26.58,
            "estimated_diameter_max": 59.4346868419
        },
        "miles": {
            "estimated_diameter_min": 0.0165160412,
            "estimated_diameter_max": 0.0369309908
        },
        "feet": {
            "estimated_diameter_min": 87.2047272,
            "estimated_diameter_max": 194.9956979785
        }
    },
    "is_potentially_hazardous_asteroid": false,
    "close_approach_data": [
        {
            "close_approach_date": "2015-12-30",
            "close_approach_date_full": "2015-Dec-30 02:20",
            "epoch_date_close_approach": 1451442000000,
            "relative_velocity": {
                "kilometers_per_second": "17.1691059937",
                "kilometers_per_hour": "61808.7815772271",
                "miles_per_hour": "38405.5731972498"
            },
            "miss_distance": {
                "astronomical": "0.2735250276",
                "lunar": "106.4012357364",
                "kilometers": "40918761.520651212",
                "miles": "25425739.4017302456"
            },
            "orbiting_body": "Earth"
        },
        {
            "close_approach_date": "2017-08-27",
            "close_approach_date_full": "2017-Aug-27 22:02",
            "epoch_date_close_approach": 1503871320000,
            "relative_velocity": {
                "kilometers_per_second": "10.1180944004",
                "kilometers_per_hour": "36425.1398415498",
                "miles_per_hour": "22633.165364323"
            },
            "miss_distance": {
                "astronomical": "0.0415024767",
                "lunar": "16.1444634363",
                "kilometers": "6208682.114044629",
                "miles": "3857896.1726447202"
            },
            "orbiting_body": "Earth"
        },
        {
            "close_approach_date": "2018-01-12",
            "close_approach_date_full": "2018-Jan-12 08:54",
            "epoch_date_close_approach": 1515747240000,
            "relative_velocity": {
                "kilometers_per_second": "4.7941510595",
                "kilometers_per_hour": "17258.9438143514",
                "miles_per_hour": "10724.0365050896"
            },
            "miss_distance": {
                "astronomical": "0.4605309316",
                "lunar": "179.1465323924",
                "kilometers": "68894446.436475692",
                "miles": "42809023.9348088696"
            },
            "orbiting_body": "Earth"
        }
    ],
    "orbital_data": {
        "orbit_id": "2",
        "orbit_determination_date": "2017-08-23 06:20:54",
        "first_observation_date": "2017-08-17",
        "last_observation_date": "2017-08-22",
        "data_arc_in_days": 5,
        "observations_used": 15,
        "orbit_uncertainty": "8",
        "minimum_orbit_intersection": ".00555059",
        "jupiter_tisserand_invariant": "4.392",
        "epoch_osculation": "2457983.5",
        "eccentricity": ".4111763995007064",
        "semi_major_axis": "1.528734889149734",
        "inclination": "1.190043921784901",
        "ascending_node_longitude": "324.435925656139",
        "orbital_period": "690.3934982263251",
        "perihelion_distance": ".9001551816380349",
        "perihelion_argument": "66.39801622482641",
        "aphelion_distance": "2.157314596661434",
        "perihelion_time": "2458036.509238162759",
        "mean_anomaly": "332.3587696181673",
        "mean_motion": ".5214417588300994",
        "equinox": "J2000",
        "orbit_class": {
            "orbit_class_type": "APO",
            "orbit_class_description": "Near-Earth asteroid orbits which cross the Earth’s orbit similar to that of 1862 Apollo",
            "orbit_class_range": "a (semi-major axis) > 1.0 AU; q (perihelion) < 1.017 AU"
        }
    },
    "is_sentry_object": false
}